YAOGAN-43 01J           
1 60466U 24148J   24258.39102999  .00037145  00000+0  15833-2 0  9995
2 60466  35.0013 232.3918 0008332 177.4124 182.6634 15.21939178  4387
CZ-4B R/B               
1 60467U 24148K   24258.59712903  .00151887  00000+0  14709-2 0  9991
2 60467  35.0053 222.4391 0114059 273.2925  85.4758 15.57050055  4503
2024-149A               
1 60468U 24149A   24258.51966794  .00019084  00000+0  94503-3 0  9997
2 60468  97.4381 333.5875 0003201 341.3488  18.7628 15.17816727  4358
WARATAH SEED-1          
1 60469U 24149B   24258.51940306  .00024392  00000+0  12044-2 0  9996
2 60469  97.4372 333.5860 0001766 348.9180  11.2015 15.17869052  4356
PHISAT 2                
1 60470U 24149C   24258.51874423  .00024864  00000+0  12304-2 0  9997
2 60470  97.4411 333.5998 0001434  19.1432 340.9856 15.17788685  4350
LEMUR-2-TOMATOKECHUP    
1 60471U 24149D   24258.51630906  .00022825  00000+0  11253-2 0  9991
2 60471  97.4432 333.6108 0002067  11.4904 348.6377 15.17936127  4359
CONNECTA IOT-1          
1 60472U 24149E   24258.45121207  .00012930  00000+0  64376-3 0  9995
2 60472  97.4411 333.5371 0002498  30.0341 330.1036 15.17714988  4344
2024-149F               
1 60473U 24149F   24258.44855293  .00025810  00000+0  12659-2 0  9991
2 60473  97.4426 333.5457 0002224  35.7296 324.4086 15.18090250  4345
2024-149G               
1 60474U 24149G   24258.44837283  .00029870  00000+0  14632-2 0  9994
2 60474  97.4425 333.5456 0002258  36.6151 323.5237 15.18102303  4342
CONNECTA IOT-3          
1 60475U 24149H   24258.58197722  .00014087  00000+0  69977-3 0  9994
2 60475  97.4362 333.6500 0003973  13.1823 346.9514 15.17772550  4360
QUBE                    
1 60476U 24149J   24258.44547988  .00030707  00000+0  14934-2 0  9992
2 60476  97.4428 333.5516 0003031  15.5399 344.5928 15.18346296  4345
SATORO-T2               
1 60477U 24149K   24258.50602680  .00039503  00000+0  18879-2 0  9996
2 60477  97.4387 333.6090 0002201  12.8835 347.2456 15.18897729  4350
WREN-1                  
1 60478U 24149L   24258.50959440  .00033721  00000+0  16309-2 0  9998
2 60478  97.4403 333.6104 0007027  21.6971 338.4559 15.18501300  4359
TOMORROW-S1             
1 60479U 24149M   24258.51283872  .00022154  00000+0  10883-2 0  9998
2 60479  97.4376 333.5960 0003196  27.9966 332.1439 15.18065372  4356
FLOCK 4BE-18            
1 60480U 24149N   24258.57714311  .00025119  00000+0  12269-2 0  9997
2 60480  97.4391 333.6671 0005857  15.7596 344.3819 15.18229138  4365
FLOCK 4BE-7             
1 60481U 24149P   24258.57630981  .00023010  00000+0  11232-2 0  9995
2 60481  97.4423 333.6817 0004666  17.0469 343.0921 15.18274278  4360
FLOCK 4BE-4             
1 60482U 24149Q   24258.57584124  .00115312  00000+0  55206-2 0  9999
2 60482  97.4419 333.6807 0004074  20.4615 339.6781 15.18433243  4363
FLOCK 4BE-16            
1 60483U 24149R   24258.57609388  .00026881  00000+0  13095-2 0  9992
2 60483  97.4407 333.6752 0004245  19.2773 340.8621 15.18313429  4361
FLOCK 4BE-26            
1 60484U 24149S   24258.50823659  .00023316  00000+0  11335-2 0  9990
2 60484  97.4374 333.5991 0005186  18.0299 342.1119 15.18412323  4353
TOMORROW-S2             
1 60485U 24149T   24258.57671146  .00021044  00000+0  10301-2 0  9998
2 60485  97.4437 333.6858 0003525  29.9589 330.1846 15.18199411  4360
FLOCK 4BE-36            
1 60486U 24149U   24258.44281091  .00026587  00000+0  12923-2 0  9990
2 60486  97.4384 333.5364 0006547  24.9431 335.2118 15.18382641  4346
FLOCK 4BE-25            
1 60487U 24149V   24258.50672094  .00022674  00000+0  11013-2 0  9997
2 60487  97.4437 333.6266 0003934  24.1066 336.0351 15.18453422  4356
FLOCK 4BE-31            
1 60488U 24149W   24258.50683662  .00028034  00000+0  13568-2 0  9994
2 60488  97.4435 333.6271 0004650  25.5454 334.6009 15.18530630  4354
FLOCK 4BE-20            
1 60489U 24149X   24258.50535952  .00020642  00000+0  10008-2 0  9996
2 60489  97.4365 333.5988 0005451  23.6529 336.4955 15.18530088  4350
FLOCK 4BE-23            
1 60490U 24149Y   24258.44161956  .00023326  00000+0  11351-2 0  9994
2 60490  97.4428 333.5596 0005072  24.1623 335.9848 15.18377973  4343
FLOCK 4BE-15            
1 60491U 24149Z   24258.50687809  .00024533  00000+0  11909-2 0  9992
2 60491  97.4361 333.5959 0005628  26.8024 333.3500 15.18450676  4354
FLOCK 4BE-17            
1 60492U 24149AA  24258.50669741  .00020364  00000+0  99063-3 0  9994
2 60492  97.4439 333.6295 0004480  27.9419 332.2055 15.18421054  4351
2024-149AB              
1 60493U 24149AB  24258.43992641  .00024667  00000+0  11950-2 0  9993
2 60493  97.4419 333.5584 0005288  29.9951 330.1586 15.18520459  4344
FLOCK 4BE-22            
1 60494U 24149AC  24258.50564052  .00024406  00000+0  11827-2 0  9997
2 60494  97.4379 333.6017 0006536  32.9137 327.2503 15.18507383  4357
FLOCK 4BE-34            
1 60495U 24149AD  24258.50451874  .00020734  00000+0  10053-2 0  9995
2 60495  97.4425 333.6285 0004837  30.5367 329.6148 15.18531271  4352
TYCHE                   
1 60496U 24149AE  24258.44105927  .00015703  00000+0  76870-3 0  9994
2 60496  97.4410 333.5525 0005746  38.8199 321.3447 15.18252474  4342
FLOCK 4BE-32            
1 60497U 24149AF  24258.50137854  .00024480  00000+0  11775-2 0  9990
2 60497  97.4365 333.6022 0005932  32.0938 328.0657 15.18768366  4359
2024-149AG              
1 60498U 24149AG  24258.50394193  .00025124  00000+0  12133-2 0  9997
2 60498  97.4389 333.6078 0006325  37.9280 322.2399 15.18621971  4357
FLOCK 4BE-30            
1 60499U 24149AH  24258.50268830  .00024845  00000+0  11979-2 0  9992
2 60499  97.4439 333.6354 0004706  36.0161 324.1389 15.18687927  3734
2024-149AJ              
1 60500U 24149AJ  24258.50327510  .00025084  00000+0  12106-2 0  9995
2 60500  97.4415 333.6256 0005169  35.1942 324.9632 15.18650294  4358
FLOCK 4BE-11            
1 60501U 24149AK  24258.50200111  .00023670  00000+0  11399-2 0  9995
2 60501  97.4369 333.6022 0006357  38.2722 321.8963 15.18730771  4350
FLOCK 4BE-33            
1 60502U 24149AL  24258.56625949  .00021119  00000+0  10172-2 0  9996
2 60502  97.4382 333.6736 0006259  43.4543 316.7183 15.18751405  4363
FLOCK 4BE-10            
1 60503U 24149AM  24258.50078533  .00022407  00000+0  10798-2 0  9997
2 60503  97.4434 333.6363 0004493  43.5281 316.6307 15.18728014  4352
2024-149AN              
1 60504U 24149AN  24258.50116310  .00018756  00000+0  90711-3 0  9990
2 60504  97.4417 333.6278 0005188  48.0811 312.0865 15.18638217  4354
FLOCK 4BE-24            
1 60505U 24149AP  24258.56264918  .00025979  00000+0  12398-2 0  9994
2 60505  97.4367 333.6733 0006405  44.1590 316.0155 15.19026380  4369
LUR-1                   
1 60506U 24149AQ  24258.56604701  .00014277  00000+0  69128-3 0  9996
2 60506  97.4401 333.6838 0005913  52.4881 307.6890 15.18653343  4369
TANAGER-1               
1 60507U 24149AR  24258.56435307  .00025674  00000+0  12290-2 0  9991
2 60507  97.4403 333.6862 0005555  49.7183 310.4536 15.18926692  4364
EAGLEEYE                
1 60508U 24149AS  24258.56016900  .00033996  00000+0  16048-2 0  9997
2 60508  97.4388 333.6846 0005774  48.7414 311.4317 15.19349854  4366
FLOCK 4BE-29            
1 60509U 24149AT  24258.56149332  .00026735  00000+0  12719-2 0  9998
2 60509  97.4442 333.7101 0004982  53.0619 307.1072 15.19135690  4360
2024-149AU              
1 60510U 24149AU  24258.56200529  .00025981  00000+0  12393-2 0  9996
2 60510  97.4381 333.6786 0006236  54.0722 306.1090 15.19044166  4368
FLOCK 4BE-2             
1 60511U 24149AV  24258.42631811  .00029587  00000+0  13988-2 0  9991
2 60511  97.4446 333.5847 0005058  56.2723 303.8993 15.19330641  4344
FLOCK 4BE-13            
1 60512U 24149AW  24258.56067307  .00024673  00000+0  11754-2 0  9990
2 60512  97.4360 333.6751 0006831  46.1829 313.9969 15.19095791  4361
FLOCK 4BE-27            
1 60513U 24149AX  24258.49351591  .00018678  00000+0  89248-3 0  9996
2 60513  97.4441 333.6454 0006360  60.9566 299.2305 15.19054196  4354
FLOCK 4BE-9             
1 60514U 24149AY  24258.55789785  .00025140  00000+0  11928-2 0  9995
2 60514  97.4426 333.7073 0005140  63.3778 296.7983 15.19242289  4360
FLOCK 4BE-8             
1 60515U 24149AZ  24258.55806953  .00022496  00000+0  10687-2 0  9995
2 60515  97.4375 333.6830 0006814  55.4204 304.7673 15.19212957  4364
FLOCK 4BE-6             
1 60516U 24149BA  24258.55700839  .00022921  00000+0  10877-2 0  9996
2 60516  97.4431 333.7098 0005677  64.0042 296.1776 15.19253410  4364
FLOCK 4BE-14            
1 60517U 24149BB  24258.55333559  .00025484  00000+0  11983-2 0  9994
2 60517  97.4380 333.6925 0007171  55.6027 304.5885 15.19539502  4360
FLOCK 4BE-1             
1 60518U 24149BC  24258.55439449  .00025777  00000+0  12143-2 0  9994
2 60518  97.4425 333.7097 0006453  61.0072 299.1809 15.19478439  4361
FLOCK 4BE-28            
1 60519U 24149BD  24258.55541952  .00027882  00000+0  13137-2 0  9991
2 60519  97.4392 333.6947 0007799  55.1985 304.9983 15.19446527  4360
IPERDRONE.0             
1 60520U 24149BE  24258.55113550  .00033882  00000+0  15761-2 0  9994
2 60520  97.4399 333.7026 0007410  52.8920 307.2991 15.19849754  4365
2024-149BF              
1 60521U 24149BF  24258.54854473  .00035996  00000+0  16613-2 0  9995
2 60521  97.4419 333.7138 0007337  54.9967 305.1955 15.20107492  4360
CONNECTA IOT-2          
1 60522U 24149BG  24258.55321574  .00016704  00000+0  79204-3 0  9990
2 60522  97.4439 333.7149 0008488  60.0665 300.1412 15.19330324  4369
PTD-R (TYVAK-0127)      
1 60523U 24149BH  24258.54527485  .00041416  00000+0  18967-2 0  9995
2 60523  97.4371 333.7004 0008083  50.6048 309.5901 15.20336220  4365
